IRNSS-1C                
1 40269U 14061A   23357.50367971 -.00000153  00000+0  00000+0 0  9999
2 40269   4.2336 109.4732 0017686   4.6094 242.0813  1.00272243 33599
INTELSAT 30 (IS-30)     
1 40271U 14062A   23356.93663209 -.00000139  00000+0  00000+0 0  9996
2 40271   0.0102   9.1051 0000942 354.1308 330.1129  1.00271745 33499
ARSAT 1                 
1 40272U 14062B   23357.51431378 -.00000248  00000+0  00000+0 0  9993
2 40272   0.0156 352.8658 0002239 275.7635 296.5091  1.00271632 33524
EXPRESS-AM6             
1 40277U 14064A   23357.46749552  .00000109  00000+0  00000+0 0  9995
2 40277   0.0150 293.3993 0000742  13.7736   5.8702  1.00273153 32487
GSAT-16                 
1 40332U 14078A   23356.53680840  .00000096  00000+0  00000+0 0  9998
2 40332   0.0259 261.6452 0002224 205.0940 232.4179  1.00270332 33008
DIRECTV 14              
1 40333U 14078B   23357.61817135 -.00000114  00000+0  00000+0 0  9990
2 40333   0.0192 310.7970 0000088 283.8283 340.5817  1.00270799 32978
YAMAL 401               
1 40345U 14082A   23357.58118473 -.00000217  00000+0  00000+0 0  9997
2 40345   0.0216 281.4356 0000089 131.7198 337.8576  1.00270669 32828
ASTRA 2G                
1 40364U 14089A   23357.53415498  .00000161  00000+0  00000+0 0  9994
2 40364   0.0460 334.4972 0001276  38.8834 298.9279  1.00268954 32872
FENGYUN 2G              
1 40367U 14090A   23357.56106775 -.00000294  00000+0  00000+0 0  9995
2 40367   3.3383  83.5639 0000731  46.1979 263.5065  1.00280853 32901
MUOS-3                  
1 40374U 15002A   23357.49771617 -.00000119  00000+0  00000+0 0  9998
2 40374   3.0003  31.1388 0058402 183.0822  41.2731  1.00270822 32491
INMARSAT 5-F2           
1 40384U 15005A   23356.30001937 -.00000274  00000+0  00000+0 0  9994
2 40384   0.0247  11.5577 0000244 276.1022 215.9284  1.00267528 32579
ABS-3A                  
1 40424U 15010A   23357.38473685 -.00000015  00000+0  00000+0 0  9990
2 40424   0.0037   2.9519 0001676 160.9139  63.3265  1.00269524 32280
EUTELSAT 115 WEST B     
1 40425U 15010B   23355.92997453 -.00000014  00000+0  00000+0 0  9992
2 40425   0.0131 149.1827 0000364 209.1624 311.7770  1.00271826 32289
EXPRESS-AM7             
1 40505U 15012A   23357.56021515  .00000162  00000+0  00000+0 0  9995
2 40505   0.0139  50.2559 0003042 220.5260  62.7137  1.00272337 31916
IRNSS-1D                
1 40547U 15018A   23357.60976954 -.00000268  00000+0  00000+0 0  9996
2 40547  27.8460 255.7561 0018342 181.3625 346.0714  1.00277833 31891
BEIDOU-3S IGSO-1S       
1 40549U 15019A   23357.22958387 -.00000201  00000+0  00000+0 0  9994
2 40549  50.9020 306.2782 0036033 195.7003 126.6631  1.00288033 31978
THOR 7                  
1 40613U 15022A   23357.31355222  .00000003  00000+0  00000+0 0  9998
2 40613   0.0140 348.7213 0002954 283.9584 291.1485  1.00272083 31724
TURKMENALEM52E/MONACOSAT
1 40617U 15023A   23357.53894123  .00000115  00000+0  00000+0 0  9999
2 40617   0.0377  96.1350 0003012 175.6477  66.0599  1.00272200 31759
DIRECTV 15              
1 40663U 15026A   23357.01229919 -.00000091  00000+0  00000+0 0  9995
2 40663   0.0035  83.5011 0000448 122.1459 147.2033  1.00272572 31377
SKY MEXICO-1            
1 40664U 15026B   23357.51292141 -.00000223  00000+0  00000+0 0  9995
2 40664   0.0203 286.2552 0002513 351.6426 279.7778  1.00271659 31366
METEOSAT-11 (MSG-4)     
1 40732U 15034A   23357.31555375  .00000075  00000+0  00000+0 0  9993
2 40732   0.9707  62.1831 0002236 221.5745 290.8534  1.00277919 30922
STAR ONE C4             
1 40733U 15034B   23357.00118774 -.00000253  00000+0  00000+0 0  9997
2 40733   0.0240 337.5462 0002113 315.9373  88.2126  1.00273276 30922
WGS F7 (USA 263)        
1 40746U 15036A   23357.40952123  .00000029  00000+0  00000+0 0  9991
2 40746   0.0410  54.8026 0000103 199.9250 159.3711  1.00270066 30778
INTELSAT 34 (IS-34)     
1 40874U 15039A   23357.51753362 -.00000274  00000+0  00000+0 0  9995
2 40874   0.0157  14.2437 0000605 277.4715 290.8997  1.00269228 30538
EUTELSAT 8 WEST B       
1 40875U 15039B   23357.49215909 -.00000054  00000+0  00000+0 0  9999
2 40875   0.0655  15.6556 0003650 267.6883 337.5966  1.00270807 30551
GSAT-6                  
1 40880U 15041A   23357.62633920 -.00000149  00000+0  00000+0 0  9995
2 40880   0.0389  87.7217 0003494 172.4957 139.6744  1.00272867 30504
INMARSAT 5-F3           
1 40882U 15042A   23357.45345884  .00000061  00000+0  00000+0 0  9990
2 40882   0.0255  19.1422 0000641 304.7539 110.6883  1.00269259 30461
MUOS-4                  
1 40887U 15044A   23357.57877146 -.00000085  00000+0  00000+0 0  9998
2 40887   2.8898  27.5133 0053144 356.2400 351.4739  1.00271429 30463
TJS-1                   
1 40892U 15046A   23357.63140405 -.00000145  00000+0  00000+0 0  9991
2 40892   0.0652 256.7126 0002133  29.6143 187.9324  1.00268293 30470
EXPRESS-AM8             
1 40895U 15048A   23357.45409403 -.00000100  00000+0  00000+0 0  9993
2 40895   0.0171 328.0692 0000220 206.4193  66.7180  1.00271310 30259
BEIDOU-3S IGSO-2S       
1 40938U 15053A   23357.18192765 -.00000143  00000+0  00000+0 0  9994
2 40938  50.6357 269.4712 0046280 192.7445 149.1892  1.00257775 30253
SKY MUSTER 1 (NBN1A)    
1 40940U 15054A   23357.38452147 -.00000267  00000+0  00000+0 0  9990
2 40940   0.0171 328.7509 0001998 294.9247 106.6648  1.00270350 30165
ARSAT 2                 
1 40941U 15054B   23357.26785757 -.00000213  00000+0  00000+0 0  9995
2 40941   0.0135   9.4937 0002023 254.3665 203.1146  1.00270629 30220
MORELOS 3               
1 40946U 15056A   23357.60535588 -.00000032  00000+0  00000+0 0  9994
2 40946   3.1270 346.9826 0001510 347.4954 222.2395  1.00272001 30190
APSTAR 9                
1 40982U 15059A   23357.64466336 -.00000255  00000+0  00000+0 0  9992
2 40982   0.0233   4.2923 0003042 240.8809 220.8338  1.00268916 30038
TURKSAT 4B              
1 40984U 15060A   23357.25203594  .00000126  00000+0  00000+0 0  9994
2 40984   0.0176 332.6591 0003022 294.5990 324.9933  1.00274809 30002
CHINASAT 2C (ZX 2C)     
1 41021U 15063A   23357.62729303 -.00000313  00000+0  00000+0 0  9991
2 41021   0.0101  92.1313 0002399 273.2188  55.8005  1.00272133 29907
GSAT-15                 
1 41028U 15065A   23357.58284572 -.00000247  00000+0  00000+0 0  9995
2 41028   0.0463 270.7341 0002542 328.1618 156.2932  1.00271980 29700
BADR-7 (ARABSAT-6B)     
1 41029U 15065B   23357.18382812  .00000156  00000+0  00000+0 0  9996
2 41029   0.0485 236.8557 0006044  11.0008 295.7780  1.00269069 29670
LAOSAT 1                
1 41034U 15067A   23357.64188137 -.00000332  00000+0  00000+0 0  9996
2 41034   0.0457 182.9433 0002606  50.3898 218.1693  1.00269495 29778
TELSTAR 12V             
1 41036U 15068A   23357.49771617 -.00000107  00000+0  00000+0 0  9993
2 41036   0.0142  54.5173 0002664 223.5092 337.9238  1.00270994 29535
ELEKTRO-L 2             
1 41105U 15074A   23357.45409403 -.00000108  00000+0  00000+0 0  9995
2 41105   4.3910  81.5903 0003713 185.4322 333.6837  1.00272314 29414
COSMOS 2513             
1 41121U 15075A   23357.50337257 -.00000127  00000+0  00000+0 0  9998
2 41121   0.0786 103.9688 0003135 176.2908  72.9828  1.00272854 29435
EXPRESS-AMU1            
1 41191U 15082A   23357.56021515  .00000167  00000+0  00000+0 0  9999
2 41191   0.0189 345.9579 0002638 285.9174  57.7383  1.00268655 29178
GAOFEN-4                
1 41194U 15083A   23357.60893987 -.00000324  00000+0  00000+0 0  9994
2 41194   0.0763  79.8535 0003123 149.0134 187.9267  1.00272906 29430
BELINTERSAT-1           
1 41238U 16001A   23357.53885421  .00000118  00000+0  00000+0 0  9990
2 41238   0.0116  98.9283 0001878 145.8544  92.5084  1.00272226 29148
IRNSS-1E                
1 41241U 16003A   23356.66729310 -.00000312  00000+0  00000+0 0  9990
2 41241  31.2278  76.1485 0021626 184.4410 182.4430  1.00272765 28986
EUTELSAT 9B             
1 41310U 16005A   23357.53041300  .00000073  00000+0  00000+0 0  9995
2 41310   0.0687  75.8902 0005276 190.4417  25.4094  1.00272242 29026
SES-9                   
1 41380U 16013A   23357.26360997 -.00000334  00000+0  00000+0 0  9998
2 41380   0.0231 308.2739 0000321 245.3527 101.1054  1.00270241 28346
EUTELSAT 65 WEST A      
1 41382U 16014A   23357.51561913 -.00000265  00000+0  00000+0 0  9993
2 41382   0.0510 342.8227 0002253 284.5913 304.7986  1.00272695 28456
IRNSS-1F                
1 41384U 16015A   23357.55327348  .00000169  00000+0  00000+0 0  9994
2 41384   3.1686 124.8124 0022282 180.5698  17.9321  1.00270874 28575
BEIDOU-2 IGSO-6         
1 41434U 16021A   23357.09044279 -.00000173  00000+0  00000+0 0  9991
2 41434  58.9107  47.1453 0049748 223.7498 307.8095  1.00261253 28382
IRNSS-1G                
1 41469U 16027A   23357.59508355 -.00000324  00000+0  00000+0 0  9998
2 41469   3.0543 126.2557 0002838 261.2146  48.1308  1.00276163 28080
JCSAT-2B                
1 41471U 16028A   23357.22827062 -.00000154  00000+0  00000+0 0  9992
2 41471   0.0181  10.6198 0001286 281.3206  35.7348  1.00270521 28023
THAICOM 8               
1 41552U 16031A   23357.62623128 -.00000110  00000+0  00000+0 0  9999
2 41552   0.0515  36.3015 0002840 271.1197  88.4362  1.00270168 27623
INTELSAT 31 (IS-31)     
1 41581U 16035A   23355.93389056 -.00000140  00000+0  00000+0 0  9999
2 41581   0.0170  37.4425 0001955 145.8941 148.0378  1.00269981 27585
BEIDOU-2 G7             
1 41586U 16037A   23357.62898294 -.00000344  00000+0  00000+0 0  9999
2 41586   1.4869  66.5807 0009072 314.4160  47.9120  1.00272559 27703
ABS-2A (MONGOLSAT-1)    
1 41588U 16038A   23357.40022691 -.00000073  00000+0  00000+0 0  9997
2 41588   0.0111 337.0925 0001790 249.5797  83.8211  1.00269561 27619
EUTELSAT 117 WEST B     
1 41589U 16038B   23357.06397698  .00000000  00000+0  00000+0 0  9991
2 41589   0.0126 158.7973 0000378 228.4657 330.1391  1.00271755 27568
